[{"OBJECT_NAME":"SJ-11-03","OBJECT_ID":"2011-030A","EPOCH":"2026-03-09T23:29:54.715200","MEAN_MOTION":14.64220728,"ECCENTRICITY":0.00083094,"INCLINATION":97.9236,"RA_OF_ASC_NODE":36.6626,"ARG_OF_PERICENTER":357.4545,"MEAN_ANOMALY":43.1151,"EPHEMERIS_TYPE":0,"CLASSIFICATION_TYPE":"U","NORAD_CAT_ID":37730,"ELEMENT_SET_NO":999,"REV_AT_EPOCH":78259,"BSTAR":0.00019672092,"MEAN_MOTION_DOT":9.91e-6,"MEAN_MOTION_DDOT":0},{"OBJECT_NAME":"CZ-4B DEB","OBJECT_ID":"1999-057EV","EPOCH":"2026-03-09T06:01:08.643072","MEAN_MOTION":14.74646443,"ECCENTRICITY":0.00590955,"INCLINATION":98.381,"RA_OF_ASC_NODE":162.1038,"ARG_OF_PERICENTER":333.035,"MEAN_ANOMALY":86.1586,"EPHEMERIS_TYPE":0,"CLASSIFICATION_TYPE":"U","NORAD_CAT_ID":26259,"ELEMENT_SET_NO":999,"REV_AT_EPOCH":36947,"BSTAR":0.0011862595,"MEAN_MOTION_DOT":8.089e-5,"MEAN_MOTION_DDOT":0}]
